INTELSAT 23 (IS-23)     
1 38867U 12057A   26185.35432409 -.00000273  00000+0  00000+0 0  9990
2 38867   0.0158  22.2071 0000499 191.2104 143.4564  1.00266390 50124
FM-6                    
1 39360U 13058A   26183.70211649 -.00000005  00000+0  00000+0 0  9992
2 39360   0.0160  40.7600 0001960 138.6453 237.7772  1.00271889 46228
INTELSAT 30 (IS-30)     
1 40271U 14062A   26186.21468787 -.00000138  00000+0  00000+0 0  9994
2 40271   0.0182  48.3724 0001695 343.0020 234.0864  1.00276491  6977
DIRECTV 14              
1 40333U 14078B   26186.55701171 -.00000112  00000+0  00000+0 0  9996
2 40333   0.0117  38.6757 0000109 342.0332   4.1209  1.00271312 42220
DIRECTV 15              
1 40663U 15026A   26185.98605395 -.00000090  00000+0  00000+0 0  9998
2 40663   0.0181  69.4379 0000300 276.8843 188.7729  1.00274623 40641
SKY MEXICO-1            
1 40664U 15026B   26186.56108507 -.00000221  00000+0  00000+0 0  9993
2 40664   0.0173  67.2170 0002464  55.9345 283.6050  1.00272193 40635
INTELSAT 34 (IS-34)     
1 40874U 15039A   26186.20926027 -.00000272  00000+0  00000+0 0  9992
2 40874   0.0093 349.4006 0000293  41.4792 272.1706  1.00271717 39816
INTELSAT 31 (IS-31)     
1 41581U 16035A   26186.13015587 -.00000138  00000+0  00000+0 0  9998
2 41581   0.0394 205.6144 0000944  64.2305 325.0988  1.00273064 36867
INTELSAT 36 (IS-36)     
1 41747U 16053A   26186.16235706 -.00000011  00000+0  00000+0 0  9992
2 41747   0.0097  10.0275 0002215 335.4655  64.6192  1.00270251 36136
INTELSAT 32E (IS-32E)   
1 41945U 17007B   26186.17121042  .00000000  00000+0  00000+0 0  9997
2 41945   0.0170  17.7536 0000840 346.9082 296.9814  1.00276571 34405
INTELSAT 35E (IS-35E)   
1 42818U 17041A   26186.44382245 -.00000224  00000+0  00000+0 0  9998
2 42818   0.0190  38.6191 0001899  62.8398 307.2681  1.00272942 32993
INTELSAT 37E (IS-37E)   
1 42950U 17059A   26186.43055035 -.00000127  00000+0  00000+0 0  9999
2 42950   0.0168  50.6062 0002731  54.8223 315.0045  1.00272461 32245
AZERSPACE 2 (IS-38)     
1 43632U 18074A   26186.58561185  .00000150  00000+0  00000+0 0  9994
2 43632   0.0184 347.9268 0001451 115.0350  76.5561  1.00270634 28630
HORIZONS-3E             
1 43633U 18074B   26185.89731693 -.00000018  00000+0  00000+0 0  9995
2 43633   0.0397 223.4726 0000751  76.0728 115.4029  1.00268688 28516
AT&T T-16               
1 44333U 19034A   26186.20031322 -.00000102  00000+0  00000+0 0  9992
2 44333   0.0143  57.8212 0000440 271.1422 285.4985  1.00270256 25819
INTELSAT 39 (IS-39)     
1 44476U 19049B   26186.60093756  .00000000  00000+0  00000+0 0  9995
2 44476   0.0201  28.5981 0000724 299.5808 233.7048  1.00269435 25315
GALAXY 30 (G-30)        
1 46114U 20056C   26186.56685059  .00000050  00000+0  00000+0 0  9999
2 46114   0.0183  35.3707 0001999  70.3162 256.9538  1.00273371 21478
GALAXY 33 (G-33)        
1 54026U 22128A   26186.56961823  .00000093  00000+0  00000+0 0  9995
2 54026   0.0189  58.9728 0001929  42.5404 254.1132  1.00271550 13920
GALAXY 34 (G-34)        
1 54027U 22128B   26186.56913852  .00000000  00000+0  00000+0 0  9993
2 54027   0.0173  12.2475 0001801 102.7238 244.4850  1.00273735 14094
GALAXY 31 (G-31)        
1 54243U 22153A   26186.55276502  .00000027  00000+0  00000+0 0  9993
2 54243   0.0231  93.0472 0001418  12.6340 255.8595  1.00272406  7313
GALAXY 32 (G-32)        
1 54244U 22153B   26185.98839396 -.00000161  00000+0  00000+0 0  9996
2 54244   0.0095 351.1203 0001813  56.4825 140.2192  1.00272054 13322
GALAXY 35 (G-35)        
1 54741U 22170A   26186.55822506 -.00000149  00000+0  00000+0 0  9992
2 54741   0.0179  87.0306 0002169  19.2789 285.1039  1.00272132 13075
GALAXY 36 (G-36)        
1 54742U 22170B   26186.55909172 -.00000172  00000+0  00000+0 0  9994
2 54742   0.0161  76.3527 0002771  19.8185 299.6589  1.00271586 12956
GALAXY 37 (G-37)        
1 57493U 23112A   26186.56754456  .00000000  00000+0  00000+0 0  9990
2 57493   0.0215  33.4370 0001849  81.3894 246.0525  1.00270673 10723
